NORAD_CAT_ID,OBJECT_NAME,OBJECT_TYPE,EPOCH,MEAN_MOTION,ECCENTRICITY,INCLINATION,RA_OF_ASC_NODE,ARG_OF_PERICENTER,MEAN_ANOMALY,BSTAR,MEAN_MOTION_DOT,MEAN_MOTION_DDOT,TLE_LINE0,TLE_LINE1,TLE_LINE2,SEMIMAJOR_AXIS,PERIOD,APOGEE,PERIGEE,DECAYED
53923.0,STARLINK-5004,PAYLOAD,2023-11-14 12:21:16,15.08837438,0.0001468,53.215,152.5746,93.1205,266.9955,3.2331e-05,2.27e-06,0.0,0 STARLINK-5004,1 53923U 22119AP  23318.51477330  .00000227  00000-0  32331-4 0  9991,2 53923  53.2150 152.5746 0001468  93.1205 266.9955 15.08837438 63669,6917.888,95.438,540.769,538.738,0.0
53923.0,STARLINK-5004,PAYLOAD,2023-11-14 20:18:12,15.08838169,0.0001395,53.2161,151.0884,91.4087,268.7065,-7.7432e-06,-4.11e-06,0.0,0 STARLINK-5004,1 53923U 22119AP  23318.84597463 -.00000411  00000-0 -77432-5 0  9996,2 53923  53.2161 151.0884 0001395  91.4087 268.7065 15.08838169 64133,6917.886,95.438,540.716,538.786,0.0
53923.0,STARLINK-5004,PAYLOAD,2023-11-15 15:22:49,15.0885651,0.0001648,53.2154,147.519,89.0333,271.0848,-0.00025716,-4.38e-05,0.0,0 STARLINK-5004,1 53923U 22119AP  23319.64085285 -.00004380  00000-0 -25716-3 0  9994,2 53923  53.2154 147.5190 0001648  89.0333 271.0848 15.08856510 63835,6917.83,95.437,540.835,538.555,0.0
53923.0,STARLINK-5004,PAYLOAD,2023-11-15 21:44:22,15.0883841,0.0001401,53.2154,146.3301,92.2524,267.8628,2.6193e-05,1.29e-06,0.0,0 STARLINK-5004,1 53923U 22119AP  23319.90581490  .00000129  00000-0  26193-4 0  9998,2 53923  53.2154 146.3301 0001401  92.2524 267.8628 15.08838410 64290,6917.885,95.438,540.719,538.781,0.0
53923.0,STARLINK-5004,PAYLOAD,2023-11-16 12:02:50,15.08837771,0.0001254,53.2159,143.6536,91.6561,268.4575,8.4184e-05,1.052e-05,0.0,0 STARLINK-5004,1 53923U 22119AP  23320.50197379  .00001052  00000-0  84184-4 0  9995,2 53923  53.2159 143.6536 0001254  91.6561 268.4575 15.08837771 64382,6917.887,95.438,540.62,538.885,0.0
53923.0,STARLINK-5004,PAYLOAD,2023-11-16 18:24:23,15.08838783,0.0001273,53.2158,142.4641,91.1576,268.9562,8.4385e-05,1.055e-05,0.0,0 STARLINK-5004,1 53923U 22119AP  23320.76693332  .00001055  00000-0  84385-4 0  9999,2 53923  53.2158 142.4641 0001273  91.1576 268.9562 15.08838783 64427,6917.884,95.438,540.63,538.868,0.0
53923.0,STARLINK-5004,PAYLOAD,2023-11-17 11:53:37,15.08838569,0.0001318,53.2156,139.1932,88.4939,271.6204,4.8722e-05,4.88e-06,0.0,0 STARLINK-5004,1 53923U 22119AP  23321.49557537  .00000488  00000-0  48722-4 0  9990,2 53923  53.2156 139.1932 0001318  88.4939 271.6204 15.08838569 64115,6917.885,95.438,540.662,538.838,0.0
53923.0,STARLINK-5004,PAYLOAD,2023-11-17 18:15:10,15.08837424,0.0001325,53.2157,138.0033,89.7546,270.3598,3.6115e-05,2.87e-06,0.0,0 STARLINK-5004,1 53923U 22119AP  23321.76053665  .00000287  00000-0  36115-4 0  9993,2 53923  53.2157 138.0033 0001325  89.7546 270.3598 15.08837424 64573,6917.888,95.438,540.67,538.837,0.0
53923.0,STARLINK-5004,PAYLOAD,2023-11-18 05:22:52,15.08840627,0.000139,53.2156,135.9219,88.0246,272.0905,3.2571e-05,2.3e-06,0.0,0 STARLINK-5004,1 53923U 22119AP  23322.22421518  .00000230  00000-0  32571-4 0  9991,2 53923  53.2156 135.9219 0001390  88.0246 272.0905 15.08840627 64643,6917.878,95.438,540.705,538.782,0.0
53923.0,STARLINK-5004,PAYLOAD,2023-11-18 18:05:56,15.08843277,0.0001355,53.2153,133.5422,90.5985,269.5162,5.0559e-05,5.17e-06,0.0,0 STARLINK-5004,1 53923U 22119AP  23322.75413191  .00000517  00000-0  50559-4 0  9991,2 53923  53.2153 133.5422 0001355  90.5985 269.5162 15.08843277 64302,6917.87,95.437,540.673,538.798,0.0
53923.0,STARLINK-5004,PAYLOAD,2023-11-18 21:16:43,15.08843071,0.0001364,53.2152,132.9475,90.0507,270.0641,4.6078e-05,4.46e-06,0.0,0 STARLINK-5004,1 53923U 22119AP  23322.88661142  .00000446  00000-0  46078-4 0  9998,2 53923  53.2152 132.9475 0001364  90.0507 270.0641 15.08843071 64746,6917.871,95.437,540.68,538.792,0.0
53923.0,STARLINK-5004,PAYLOAD,2023-11-19 11:35:11,15.0884013,0.0001364,53.2152,130.2705,91.6869,268.4279,5.3426e-05,5.62e-06,0.0,0 STARLINK-5004,1 53923U 22119AP  23323.48277293  .00000562  00000-0  53426-4 0  9999,2 53923  53.2152 130.2705 0001364  91.6869 268.4279 15.08840130 64832,6917.88,95.438,540.689,538.801,0.0
53923.0,STARLINK-5004,PAYLOAD,2023-11-19 21:07:30,15.08840933,0.0001348,53.2158,128.4863,90.2478,269.8669,4.3232e-05,4e-06,0.0,0 STARLINK-5004,1 53923U 22119AP  23323.88021201  .00000400  00000-0  43232-4 0  9994,2 53923  53.2158 128.4863 0001348  90.2478 269.8669 15.08840933 64890,6917.878,95.437,540.675,538.81,0.0
53923.0,STARLINK-5004,PAYLOAD,2023-11-20 14:36:45,15.08833506,0.0001457,53.2157,125.2144,95.6311,264.4847,-4.4485e-05,-9.96e-06,0.0,0 STARLINK-5004,1 53923U 22119AP  23324.60886206 -.00000996  00000-0 -44485-4 0  9992,2 53923  53.2157 125.2144 0001457  95.6311 264.4847 15.08833506 65003,6917.9,95.438,540.773,538.757,0.0
53923.0,STARLINK-5004,PAYLOAD,2023-11-20 17:47:31,15.08835399,0.000135,53.2174,124.6204,87.8988,272.2158,-2.7982e-05,-7.33e-06,0.0,0 STARLINK-5004,1 53923U 22119AP  23324.74134104 -.00000733  00000-0 -27982-4 0  9992,2 53923  53.2174 124.6204 0001350  87.8988 272.2158 15.08835399 64606,6917.894,95.438,540.693,538.826,0.0
53923.0,STARLINK-5004,PAYLOAD,2023-11-21 11:16:46,15.08840065,0.0001279,53.2175,121.3493,90.6811,269.4327,4.0042e-05,3.49e-06,0.0,0 STARLINK-5004,1 53923U 22119AP  23325.46997796  .00000349  00000-0  40042-4 0  9999,2 53923  53.2175 121.3493 0001279  90.6811 269.4327 15.08840065 65139,6917.88,95.438,540.63,538.86,0.0
53923.0,STARLINK-5004,PAYLOAD,2023-11-21 17:38:18,15.08845634,0.0001293,53.2174,120.1604,87.5971,272.5169,9.5382e-05,1.231e-05,0.0,0 STARLINK-5004,1 53923U 22119AP  23325.73493376  .00001231  00000-0  95382-4 0  9992,2 53923  53.2174 120.1604 0001293  87.5971 272.5169 15.08845634 64750,6917.863,95.437,540.623,538.834,0.0
53923.0,STARLINK-5004,PAYLOAD,2023-11-22 09:32:10,15.08830547,0.0001422,53.2183,117.1876,99.3988,260.7165,9.066e-05,1.155e-05,0.0,0 STARLINK-5004,1 53923U 22119AP  23326.39734685  .00001155  00000-0  90660-4 0  9995,2 53923  53.2183 117.1876 0001422  99.3988 260.7165 15.08830547 64853,6917.909,95.438,540.758,538.791,0.0
53923.0,STARLINK-5004,PAYLOAD,2023-11-22 14:18:20,15.08831305,0.0001443,53.218,116.2943,80.8122,279.3033,5.7095e-05,6.21e-06,0.0,0 STARLINK-5004,1 53923U 22119AP  23326.59606988  .00000621  00000-0  57095-4 0  9993,2 53923  53.2180 116.2943 0001443  80.8122 279.3033 15.08831305 65307,6917.907,95.438,540.77,538.774,0.0
53923.0,STARLINK-5004,PAYLOAD,2023-11-22 17:29:06,15.08832873,0.0001457,53.2182,115.6993,87.0416,273.0743,6.3377e-05,7.21e-06,0.0,0 STARLINK-5004,1 53923U 22119AP  23326.72854914  .00000721  00000-0  63377-4 0  9993,2 53923  53.2182 115.6993 0001457  87.0416 273.0743 15.08832873 65329,6917.902,95.438,540.775,538.759,0.0
53923.0,STARLINK-5004,PAYLOAD,2023-11-23 09:22:57,15.08842203,0.000144,53.2186,112.7252,92.4299,267.6858,8.4319e-05,1.054e-05,0.0,0 STARLINK-5004,1 53923U 22119AP  23327.39094447  .00001054  00000-0  84319-4 0  9993,2 53923  53.2186 112.7252 0001440  92.4299 267.6858 15.08842203 65009,6917.874,95.437,540.735,538.742,0.0
53923.0,STARLINK-5004,PAYLOAD,2023-11-23 14:09:06,15.08851474,0.0001464,53.2182,111.835,89.8658,270.2502,0.00014334,1.995e-05,0.0,0 STARLINK-5004,1 53923U 22119AP  23327.58965681  .00001995  00000-0  14334-3 0  9994,2 53923  53.2182 111.8350 0001464  89.8658 270.2502 15.08851474 65454,6917.845,95.437,540.723,538.698,0.0
53923.0,STARLINK-5004,PAYLOAD,2023-11-23 17:19:52,15.08854937,0.0001476,53.2163,111.2395,90.8585,269.2576,0.0002584,3.829e-05,0.0,0 STARLINK-5004,1 53923U 22119AP  23327.72213644  .00003829  00000-0  25840-3 0  9997,2 53923  53.2163 111.2395 0001476  90.8585 269.2576 15.08854937 65052,6917.835,95.437,540.721,538.679,0.0
53923.0,STARLINK-5004,PAYLOAD,2023-11-24 13:59:54,15.08841924,0.0001716,53.2167,107.3709,81.4206,278.6981,0.00014721,2.056e-05,0.0,0 STARLINK-5004,1 53923U 22119AP  23328.58326514  .00002056  00000-0  14721-3 0  9990,2 53923  53.2167 107.3709 0001716  81.4206 278.6981 15.08841924 65601,6917.875,95.437,540.927,538.552,0.0
53923.0,STARLINK-5004,PAYLOAD,2023-11-24 17:10:40,15.0884415,0.000168,53.2164,106.7798,76.1994,283.9185,0.00022141,3.238e-05,0.0,0 STARLINK-5004,1 53923U 22119AP  23328.71574509  .00003238  00000-0  22141-3 0  9992,2 53923  53.2164 106.7798 0001680  76.1994 283.9185 15.08844150 65209,6917.868,95.437,540.895,538.571,0.0
53923.0,STARLINK-5004,PAYLOAD,2023-11-25 13:50:40,15.08854357,0.0001485,53.216,102.9147,88.8028,271.3135,0.0002783,4.146e-05,0.0,0 STARLINK-5004,1 53923U 22119AP  23329.57685807  .00004146  00000-0  27830-3 0  9990,2 53923  53.2160 102.9147 0001485  88.8028 271.3135 15.08854357 65758,6917.837,95.437,540.729,538.674,0.0
53923.0,STARLINK-5004,PAYLOAD,2023-11-25 15:26:03,15.08857368,0.0001544,53.2157,102.6166,82.5561,277.5607,0.00033732,5.087e-05,0.0,0 STARLINK-5004,1 53923U 22119AP  23329.64309720  .00005087  00000-0  33732-3 0  9998,2 53923  53.2157 102.6166 0001544  82.5561 277.5607 15.08857368 65769,6917.827,95.436,540.76,538.624,0.0
53923.0,STARLINK-5004,PAYLOAD,2023-11-26 12:06:05,15.08834327,0.0001374,53.2164,98.751,79.4174,280.6973,4.719e-08,-2.87e-06,0.0,0 STARLINK-5004,1 53923U 22119AP  23330.50422785 -.00000287  00000-0  47190-7 0  9997,2 53923  53.2164  98.7510 0001374  79.4174 280.6973 15.08834327 65470,6917.898,95.438,540.713,538.812,0.0
53923.0,STARLINK-5004,PAYLOAD,2023-11-26 13:41:28,15.08833082,0.0001347,53.216,98.4535,79.0657,281.0486,4.0787e-07,-2.81e-06,0.0,0 STARLINK-5004,1 53923U 22119AP  23330.57046852 -.00000281  00000-0  40787-6 0  9999,2 53923  53.2160  98.4535 0001347  79.0657 281.0486 15.08833082 65901,6917.902,95.438,540.698,538.835,0.0
53923.0,STARLINK-5004,PAYLOAD,2023-11-26 15:16:51,15.08834258,0.0001408,53.2158,98.1556,79.4704,280.6447,7.0452e-06,-1.76e-06,0.0,0 STARLINK-5004,1 53923U 22119AP  23330.63670818 -.00000176  00000-0  70452-5 0  9995,2 53923  53.2158  98.1556 0001408  79.4704 280.6447 15.08834258 65912,6917.898,95.438,540.737,538.789,0.0
